NORAD_CAT_ID,OBJECT_NAME,OBJECT_TYPE,EPOCH,MEAN_MOTION,ECCENTRICITY,INCLINATION,RA_OF_ASC_NODE,ARG_OF_PERICENTER,MEAN_ANOMALY,BSTAR,MEAN_MOTION_DOT,MEAN_MOTION_DDOT,TLE_LINE0,TLE_LINE1,TLE_LINE2,SEMIMAJOR_AXIS,PERIOD,APOGEE,PERIGEE,DECAYED
54805.0,STARLINK-5417,PAYLOAD,2023-01-17 18:51:08,15.73211394,7.609999999999999e-05,53.2152,152.8343,61.7985,298.3112,-5.1745e-06,-1.345e-05,0.0,0 STARLINK-5417,1 54805U 22175AZ  23017.78551668 -.00001345  00000-0 -51745-5 0  9990,2 54805  53.2152 152.8343 0000761  61.7985 298.3112 15.73211394  6770,6727.863,91.533,350.24,349.216,0.0
54805.0,STARLINK-5417,PAYLOAD,2023-01-18 08:34:29,15.73192182,8.85e-05,53.217,150.0049,70.9467,289.1649,1.6617e-05,1.713e-05,0.0,0 STARLINK-5417,1 54805U 22175AZ  23018.35728048  .00001713  00000-0  16617-4 0  9997,2 54805  53.2170 150.0049 0000885  70.9467 289.1649 15.73192182  4704,6727.917,91.534,350.37800000000004,349.18699999999995,0.0
54805.0,STARLINK-5417,PAYLOAD,2023-01-18 10:05:56,15.73210114,0.0001049,53.2167,149.6906,69.2737,290.8395,3.3514e-05,4.088e-05,0.0,0 STARLINK-5417,1 54805U 22175AZ  23018.42079362  .00004088  00000-0  33514-4 0  9996,2 54805  53.2167 149.6906 0001049  69.2737 290.8395 15.73210114  6873,6727.866,91.533,350.43699999999995,349.026,0.0
54805.0,STARLINK-5417,PAYLOAD,2023-01-18 14:40:23,15.73202695,0.0001844999999999,53.216,148.7495,51.8257,308.2929,2.784e-05,3.288e-05,0.0,0 STARLINK-5417,1 54805U 22175AZ  23018.61138538  .00003288  00000-0  27840-4 0  9994,2 54805  53.2160 148.7495 0001845  51.8257 308.2929 15.73202695  4743,6727.887,91.533,350.994,348.511,0.0
54805.0,STARLINK-5417,PAYLOAD,2023-01-18 19:14:49,15.73206933,0.0001325,53.2151,147.805,81.17399999999999,278.943,2.7603000000000003e-05,3.256e-05,0.0,0 STARLINK-5417,1 54805U 22175AZ  23018.80196434  .00003256  00000-0  27603-4 0  9996,2 54805  53.2151 147.8050 0001325  81.1740 278.9430 15.73206933  6938,6727.875,91.533,350.63199999999995,348.849,0.0
54805.0,STARLINK-5417,PAYLOAD,2023-01-19 04:23:43,15.73208805,0.0002205,53.2139,145.9185,76.8322,283.2944,-2.4437e-05,-4.051e-05,0.0,0 STARLINK-5417,1 54805U 22175AZ  23019.18314797 -.00004051  00000-0 -24437-4 0  9990,2 54805  53.2139 145.9185 0002205  76.8322 283.2944 15.73208805  4833,6727.87,91.533,351.219,348.25199999999995,0.0
54805.0,STARLINK-5417,PAYLOAD,2023-01-19 10:29:38,15.73206021,0.0001494,53.2158,144.6585,84.1516,275.9674,1.7013e-08,-6.18e-06,0.0,0 STARLINK-5417,1 54805U 22175AZ  23019.43725335 -.00000618  00000-0  17013-7 0  9991,2 54805  53.2158 144.6585 0001494  84.1516 275.9674 15.73206021  7031,6727.878000000001,91.533,350.74800000000005,348.73800000000006,0.0
54805.0,STARLINK-5417,PAYLOAD,2023-01-19 15:04:03,15.73234325,0.0001065,53.2173,143.7136,96.7279,263.3863,-4.2361e-06,-1.215e-05,0.0,0 STARLINK-5417,1 54805U 22175AZ  23019.62781651 -.00001215  00000-0 -42361-5 0  9992,2 54805  53.2173 143.7136 0001065  96.7279 263.3863 15.73234325  4901,6727.797,91.531,350.379,348.946,0.0
54805.0,STARLINK-5417,PAYLOAD,2023-01-20 12:24:47,15.73204644,0.0001424,53.2149,139.3164,66.8606,293.2564,-2.5698000000000004e-06,-9.81e-06,0.0,0 STARLINK-5417,1 54805U 22175AZ  23020.51722160 -.00000981  00000-0 -25698-5 0  9995,2 54805  53.2149 139.3164 0001424  66.8606 293.2564 15.73204644  5044,6727.882,91.533,350.705,348.789,0.0
54805.0,STARLINK-5417,PAYLOAD,2023-01-21 11:17:01,15.73179171,9.64e-05,53.2161,134.6028,55.5324,304.5788,-3.7048e-05,-5.81e-05,0.0,0 STARLINK-5417,1 54805U 22175AZ  23021.47015106 -.00005810  00000-0 -37048-4 0  9993,2 54805  53.2161 134.6028 0000964  55.5324 304.5788 15.73179171  5191,6727.955,91.534,350.468,349.171,0.0
54805.0,STARLINK-5417,PAYLOAD,2023-01-21 14:19:58,15.73197008,0.0001123,53.2153,133.9726,74.2291,285.8853,-5.8697e-06,-1.443e-05,0.0,0 STARLINK-5417,1 54805U 22175AZ  23021.59719916 -.00001443  00000-0 -58697-5 0  9998,2 54805  53.2153 133.9726 0001123  74.2291 285.8853 15.73197008  5214,6727.904,91.533,350.524,349.01300000000003,0.0
54805.0,STARLINK-5417,PAYLOAD,2023-01-22 02:31:47,15.73211691,0.0001053,53.2158,131.4571,91.6938,268.4203,2.1631e-05,2.419e-05,0.0,0 STARLINK-5417,1 54805U 22175AZ  23022.10541538  .00002419  00000-0  21631-4 0  9998,2 54805  53.2158 131.4571 0001053  91.6938 268.4203 15.73211691  5292,6727.861999999999,91.533,350.435,349.01800000000003,0.0
54805.0,STARLINK-5417,PAYLOAD,2023-01-22 11:40:41,15.73201466,9.8e-05,53.2159,129.5705,87.1413,272.9719,2.5086e-06,-2.67e-06,0.0,0 STARLINK-5417,1 54805U 22175AZ  23022.48658791 -.00000267  00000-0  25086-5 0  9998,2 54805  53.2159 129.5705 0000980  87.1413 272.9719 15.73201466  5354,6727.891,91.533,350.415,349.097,0.0
54805.0,STARLINK-5417,PAYLOAD,2023-01-23 13:35:51,15.73194073,8.120000000000001e-05,53.216,124.2259,109.1769,250.9339,-1.8696e-05,-3.241e-05,0.0,0 STARLINK-5417,1 54805U 22175AZ  23023.56656359 -.00003241  00000-0 -18696-4 0  9990,2 54805  53.2160 124.2259 0000812 109.1769 250.9339 15.73194073  5523,6727.911999999999,91.534,350.32300000000004,349.231,0.0
54805.0,STARLINK-5417,PAYLOAD,2023-01-24 12:28:04,15.73171019,0.0001228,53.216,119.5101,108.8667,251.2486,-4.6542e-05,-7.138e-05,0.0,0 STARLINK-5417,1 54805U 22175AZ  23024.51949284 -.00007138  00000-0 -46542-4 0  9998,2 54805  53.2160 119.5101 0001228 108.8667 251.2486 15.73171019  5679,6727.978,91.535,350.66900000000004,349.017,0.0
54805.0,STARLINK-5417,PAYLOAD,2023-01-25 06:45:48,15.7320823,0.0001257,53.2159,115.7374,77.6054,282.5107,-1.4209e-06,-8.19e-06,0.0,0 STARLINK-5417,1 54805U 22175AZ  23025.28181218 -.00000819  00000-0 -14209-5 0  9993,2 54805  53.2159 115.7374 0001257  77.6054 282.5107 15.73208230  5798,6727.871999999999,91.533,350.582,348.891,0.0
54805.0,STARLINK-5417,PAYLOAD,2023-01-25 12:51:42,15.73226995,0.0001306,53.2157,114.4799,84.4177,275.6992,2.7688000000000003e-05,3.272e-05,0.0,0 STARLINK-5417,1 54805U 22175AZ  23025.53591397  .00003272  00000-0  27688-4 0  9992,2 54805  53.2157 114.4799 0001306  84.4177 275.6992 15.73226995  5838,6727.818,91.532,350.56199999999995,348.805,0.0
54805.0,STARLINK-5417,PAYLOAD,2023-01-26 01:03:34,15.7319793,0.0001564999999999,53.2157,111.9648,85.0498,275.0701,3.1897e-05,3.858e-05,0.0,0 STARLINK-5417,1 54805U 22175AZ  23026.04415389  .00003858  00000-0  31897-4 0  9992,2 54805  53.2157 111.9648 0001565  85.0498 275.0701 15.73197930  5910,6727.901,91.533,350.819,348.713,0.0
54805.0,STARLINK-5417,PAYLOAD,2023-01-26 11:43:55,15.7321054,0.0001720999999999,53.2172,109.7644,85.3802,274.7415,2.4689e-05,2.847e-05,0.0,0 STARLINK-5417,1 54805U 22175AZ  23026.48883886  .00002847  00000-0  24689-4 0  9999,2 54805  53.2172 109.7644 0001721  85.3802 274.7415 15.73210540  8143,6727.865,91.533,350.88800000000003,348.57199999999995,0.0
54805.0,STARLINK-5417,PAYLOAD,2023-01-27 09:04:39,15.73202226,0.0001521999999999,53.2172,105.3624,75.4962,284.6227,5.8269e-07,-5.39e-06,0.0,0 STARLINK-5417,1 54805U 22175AZ  23027.37823950 -.00000539  00000-0  58269-6 0  9994,2 54805  53.2172 105.3624 0001522  75.4962 284.6227 15.73202226  6128,6727.889,91.533,350.778,348.73,0.0
54805.0,STARLINK-5417,PAYLOAD,2023-01-28 10:59:48,15.73208784,0.0001198,53.2164,100.0154,93.9593,266.1564,3.4585e-06,-1.34e-06,0.0,0 STARLINK-5417,1 54805U 22175AZ  23028.45820462 -.00000134  00000-0  34585-5 0  9994,2 54805  53.2164 100.0154 0001198  93.9593 266.1564 15.73208784  6295,6727.87,91.533,350.541,348.929,0.0
54805.0,STARLINK-5417,PAYLOAD,2023-01-28 14:02:46,15.73203586,0.0001443,53.2169,99.39,111.4862,248.6312,-4.0301e-06,-1.186e-05,0.0,0 STARLINK-5417,1 54805U 22175AZ  23028.58526384 -.00001186  00000-0 -40301-5 0  9996,2 54805  53.2169  99.3900 0001443 111.4862 248.6312 15.73203586  8470,6727.885,91.533,350.721,348.779,0.0
54805.0,STARLINK-5417,PAYLOAD,2023-01-29 12:54:59,15.73202842,0.0001231,53.2161,94.6727,92.2912,267.8249,1.1546e-05,1.001e-05,0.0,0 STARLINK-5417,1 54805U 22175AZ  23029.53818299  .00001001  00000-0  11546-4 0  9993,2 54805  53.2161  94.6727 0001231  92.2912 267.8249 15.73202842  6467,6727.887,91.533,350.58,348.924,0.0
54805.0,STARLINK-5417,PAYLOAD,2023-01-30 13:18:39,15.73200904,0.0001092,53.2161,89.6433,98.937,261.1774,1.7092e-05,1.78e-05,0.0,0 STARLINK-5417,1 54805U 22175AZ  23030.55462578  .00001780  00000-0  17092-4 0  9998,2 54805  53.2161  89.6433 0001092  98.9370 261.1774 15.73200904  8785,6727.893,91.533,350.492,349.023,0.0
54805.0,STARLINK-5417,PAYLOAD,2023-01-30 20:56:04,15.73200347,0.0001041,53.2158,88.0712,77.5933,282.5203,4.0862e-06,-4.6e-07,0.0,0 STARLINK-5417,1 54805U 22175AZ  23030.87226945 -.00000046  00000-0  40862-5 0  9996,2 54805  53.2158  88.0712 0001041  77.5933 282.5203 15.73200347  8837,6727.894,91.533,350.46,349.059,0.0
54805.0,STARLINK-5417,PAYLOAD,2023-01-31 10:39:22,15.73213253,0.0001327,53.2164,85.2419,79.2112,280.9057,1.4894e-05,1.472e-05,0.0,0 STARLINK-5417,1 54805U 22175AZ  23031.44401037  .00001472  00000-0  14894-4 0  9995,2 54805  53.2164  85.2419 0001327  79.2112 280.9057 15.73213253  6761,6727.857,91.532,350.615,348.83,0.0
54805.0,STARLINK-5417,PAYLOAD,2023-02-01 03:25:39,15.73209276,0.0001322,53.216,81.7831,70.1219,289.9943,1.0768e-05,8.92e-06,0.0,0 STARLINK-5417,1 54805U 22175AZ  23032.14281899  .00000892  00000-0  10768-4 0  9996,2 54805  53.2160  81.7831 0001322  70.1219 289.9943 15.73209276  6874,6727.869,91.533,350.623,348.844,0.0
54805.0,STARLINK-5417,PAYLOAD,2023-02-01 09:31:34,15.73207986,0.0001281,53.2168,80.5268,84.141,275.9757,6.6045e-06,3.07e-06,0.0,0 STARLINK-5417,1 54805U 22175AZ  23032.39693201  .00000307  00000-0  66045-5 0  9998,2 54805  53.2168  80.5268 0001281  84.1410 275.9757 15.73207986  9074,6727.872,91.533,350.599,348.876,0.0
54805.0,STARLINK-5417,PAYLOAD,2023-02-01 20:11:57,15.73192012,0.0001561,53.2163,78.3268,66.2823,293.8361,-4.3774e-06,-1.234e-05,0.0,0 STARLINK-5417,1 54805U 22175AZ  23032.84164272 -.00001234  00000-0 -43774-5 0  9995,2 54805  53.2163  78.3268 0001561  66.2823 293.8361 15.73192012  6984,6727.918,91.534,350.833,348.733,0.0
